NORAD_CAT_ID,OBJECT_NAME,OBJECT_TYPE,EPOCH,MEAN_MOTION,ECCENTRICITY,INCLINATION,RA_OF_ASC_NODE,ARG_OF_PERICENTER,MEAN_ANOMALY,BSTAR,MEAN_MOTION_DOT,MEAN_MOTION_DDOT,TLE_LINE0,TLE_LINE1,TLE_LINE2,SEMIMAJOR_AXIS,PERIOD,APOGEE,PERIGEE,DECAYED
55758.0,STARLINK-5072,PAYLOAD,2024-02-07 21:33:05,14.98328891,0.0002636,70.001,2.5717,269.0938,90.9919,-8.244e-05,-1.076e-05,0.0,0 STARLINK-5072,1 55758U 23028T   24038.89798096 -.00001076  00000-0 -82440-4 0  9996,2 55758  70.0010   2.5717 0002636 269.0938  90.9919 14.98328891 52081,6950.196,96.107,573.893,570.229,0.0
55758.0,STARLINK-5072,PAYLOAD,2024-02-08 03:57:37,14.98326509,0.0002745,70.0012,1.8971,273.9693,86.1153,-8.5729e-06,-1.95e-06,0.0,0 STARLINK-5072,1 55758U 23028T   24039.16502030 -.00000195  00000-0 -85729-5 0  9993,2 55758  70.0012   1.8971 0002745 273.9693  86.1153 14.98326509 52126,6950.204,96.107,573.977,570.161,0.0
55758.0,STARLINK-5072,PAYLOAD,2024-02-08 07:09:53,14.98332802,0.0002588,70.0013,1.5612,268.7908,91.2955,8.4733e-06,8e-08,0.0,0 STARLINK-5072,1 55758U 23028T   24039.29853593  .00000008  00000-0  84733-5 0  9995,2 55758  70.0013   1.5612 0002588 268.7908  91.2955 14.98332802 52144,6950.184,96.107,573.848,570.251,0.0
55758.0,STARLINK-5072,PAYLOAD,2024-02-08 21:35:06,14.98328511,0.0002445,70.0018,0.0462,263.7738,96.3142,2.0401e-07,-9e-07,0.0,0 STARLINK-5072,1 55758U 23028T   24039.89937809 -.00000090  00000-0  20401-6 0  9999,2 55758  70.0018   0.0462 0002445 263.7738  96.3142 14.98328511 52230,6950.197,96.107,573.762,570.363,0.0
55758.0,STARLINK-5072,PAYLOAD,2024-02-09 07:11:54,14.98334193,0.0002569,70.0015,359.0363,268.0791,92.0074,4.0977e-05,3.96e-06,0.0,0 STARLINK-5072,1 55758U 23028T   24040.29993359  .00000396  00000-0  40977-4 0  9993,2 55758  70.0015 359.0363 0002569 268.0791  92.0074 14.98334193 52294,6950.18,96.107,573.83,570.259,0.0
55758.0,STARLINK-5072,PAYLOAD,2024-02-10 04:01:39,14.9832749,0.0002401,70.0021,356.8506,256.7655,103.3236,3.1608e-05,2.84e-06,0.0,0 STARLINK-5072,1 55758U 23028T   24041.16781878  .00000284  00000-0  31608-4 0  9998,2 55758  70.0021 356.8506 0002401 256.7655 103.3236 14.98327490 52426,6950.201,96.107,573.734,570.397,0.0
55758.0,STARLINK-5072,PAYLOAD,2024-02-10 07:13:55,14.98329253,0.0002349,70.0023,356.5137,250.5072,109.5833,5.6338e-05,5.79e-06,0.0,0 STARLINK-5072,1 55758U 23028T   24041.30133701  .00000579  00000-0  56338-4 0  9994,2 55758  70.0023 356.5137 0002349 250.5072 109.5833 14.98329253 52443,6950.195,96.107,573.693,570.428,0.0
55758.0,STARLINK-5072,PAYLOAD,2024-02-10 21:39:07,14.98333623,0.0002496,70.0021,354.9987,257.1805,102.9075,9.0941e-05,9.92e-06,0.0,0 STARLINK-5072,1 55758U 23028T   24041.90217264  .00000992  00000-0  90941-4 0  9994,2 55758  70.0021 354.9987 0002496 257.1805 102.9075 14.98333623 52537,6950.182,96.107,573.781,570.312,0.0
55758.0,STARLINK-5072,PAYLOAD,2024-02-11 04:03:39,14.98334323,0.0002458,70.0022,354.3254,250.2682,109.8212,7.4901e-05,8.01e-06,0.0,0 STARLINK-5072,1 55758U 23028T   24042.16921189  .00000801  00000-0  74901-4 0  9998,2 55758  70.0022 354.3254 0002458 250.2682 109.8212 14.98334323 52575,6950.18,96.107,573.753,570.336,0.0
55758.0,STARLINK-5072,PAYLOAD,2024-02-11 07:15:55,14.9833603,0.0002463,70.0023,353.9881,253.3763,106.7126,0.00012328,1.379e-05,0.0,0 STARLINK-5072,1 55758U 23028T   24042.30272915  .00001379  00000-0  12328-3 0  9995,2 55758  70.0023 353.9881 0002463 253.3763 106.7126 14.98336030 52596,6950.174,96.107,573.751,570.327,0.0
55758.0,STARLINK-5072,PAYLOAD,2024-02-11 21:41:08,14.98329109,0.0002273,70.0024,352.4722,243.7255,116.3671,8.3173e-05,9e-06,0.0,0 STARLINK-5072,1 55758U 23028T   24042.90357280  .00000900  00000-0  83173-4 0  9996,2 55758  70.0024 352.4722 0002273 243.7255 116.3671 14.98329109 52684,6950.196,96.107,573.64,570.481,0.0
55758.0,STARLINK-5072,PAYLOAD,2024-02-12 04:05:40,14.98326285,0.0002387,70.0022,351.7987,245.5521,114.5389,0.00015671,1.777e-05,0.0,0 STARLINK-5072,1 55758U 23028T   24043.17061233  .00001777  00000-0  15671-3 0  9996,2 55758  70.0022 351.7987 0002387 245.5521 114.5389 14.98326285 52722,6950.204,96.107,573.728,570.41,0.0
55758.0,STARLINK-5072,PAYLOAD,2024-02-12 05:41:48,14.98331498,0.0002232,70.0027,351.631,237.3521,122.7423,0.00010214,1.126e-05,0.0,0 STARLINK-5072,1 55758U 23028T   24043.23737072  .00001126  00000-0  10214-3 0  9990,2 55758  70.0027 351.6310 0002232 237.3521 122.7423 14.98331498 52737,6950.188,96.107,573.605,570.502,0.0
55758.0,STARLINK-5072,PAYLOAD,2024-02-12 21:43:09,14.98327408,0.0002234,70.0028,349.9482,236.3324,123.7622,-3.5758e-05,-5.19e-06,0.0,0 STARLINK-5072,1 55758U 23028T   24043.90497591 -.00000519  00000-0 -35758-4 0  9991,2 55758  70.0028 349.9482 0002234 236.3324 123.7622 14.98327408 52839,6950.201,96.107,573.619,570.513,0.0
55758.0,STARLINK-5072,PAYLOAD,2024-02-13 05:43:50,14.9832324,0.0002283,70.0025,349.1067,242.7245,117.3682,-8.6386e-05,-1.123e-05,0.0,0 STARLINK-5072,1 55758U 23028T   24044.23878118 -.00001123  00000-0 -86386-4 0  9991,2 55758  70.0025 349.1067 0002283 242.7245 117.3682 14.98323240 52884,6950.214,96.107,573.666,570.492,0.0
55758.0,STARLINK-5072,PAYLOAD,2024-02-13 13:44:30,14.98333213,0.0002673,70.0011,348.2638,273.4956,86.5897,-0.00013583,-1.713e-05,0.0,0 STARLINK-5072,1 55758U 23028T   24044.57257671 -.00001713  00000-0 -13583-3 0  9996,2 55758  70.0011 348.2638 0002673 273.4956  86.5897 14.98333213 52938,6950.183,96.107,573.906,570.19,0.0
55758.0,STARLINK-5072,PAYLOAD,2024-02-13 21:45:10,14.98331003,0.0002831,70.0008,347.4225,270.885,89.1985,1.1759e-06,-7.9e-07,0.0,0 STARLINK-5072,1 55758U 23028T   24044.90637524 -.00000079  00000-0  11759-5 0  9990,2 55758  70.0008 347.4225 0002831 270.8850  89.1985 14.98331003 52984,6950.19,96.107,574.022,570.087,0.0
55758.0,STARLINK-5072,PAYLOAD,2024-02-14 04:09:42,14.98337901,0.0002736,70.0009,346.7489,270.8714,89.2132,0.00010368,1.145e-05,0.0,0 STARLINK-5072,1 55758U 23028T   24045.17340782  .00001145  00000-0  10368-3 0  9994,2 55758  70.0009 346.7489 0002736 270.8714  89.2132 14.98337901 53026,6950.168,96.106,573.935,570.132,0.0
55758.0,STARLINK-5072,PAYLOAD,2024-02-14 13:46:31,14.98327631,0.0001924,70.0041,345.7418,257.4228,102.6715,3.8899e-05,3.71e-06,0.0,0 STARLINK-5072,1 55758U 23028T   24045.57397607  .00000371  00000-0  38899-4 0  9996,2 55758  70.0041 345.7418 0001924 257.4228 102.6715 14.98327631 53084,6950.2,96.107,573.402,570.728,0.0
55758.0,STARLINK-5072,PAYLOAD,2024-02-14 20:11:03,14.98323452,0.0001965,70.0035,345.069,265.3743,94.7192,0.00011004,1.22e-05,0.0,0 STARLINK-5072,1 55758U 23028T   24045.84101711  .00001220  00000-0  11004-3 0  9997,2 55758  70.0035 345.0690 0001965 265.3743  94.7192 14.98323452 53129,6950.213,96.107,573.444,570.712,0.0
55758.0,STARLINK-5072,PAYLOAD,2024-02-14 21:47:12,14.98319402,0.0002581,70.0013,344.8977,264.565,95.5214,7.8149e-05,8.39e-06,0.0,0 STARLINK-5072,1 55758U 23028T   24045.90777982  .00000839  00000-0  78149-4 0  9992,2 55758  70.0013 344.8977 0002581 264.5650  95.5214 14.98319402 53138,6950.226,96.108,573.885,570.297,0.0
55758.0,STARLINK-5072,PAYLOAD,2024-02-15 05:47:52,14.9832793,0.0002623,70.001,344.056,267.5762,92.5096,8.0873e-05,8.72e-06,0.0,0 STARLINK-5072,1 55758U 23028T   24046.24157612  .00000872  00000-0  80873-4 0  9996,2 55758  70.0010 344.0560 0002623 267.5762  92.5096 14.98327930 53184,6950.199,96.107,573.887,570.241,0.0
55758.0,STARLINK-5072,PAYLOAD,2024-02-15 20:13:04,14.98329507,0.0002596,70.0011,342.5411,267.4713,92.6149,-5.2964e-06,-1.56e-06,0.0,0 STARLINK-5072,1 55758U 23028T   24046.84241845 -.00000156  00000-0 -52964-5 0  9992,2 55758  70.0011 342.5411 0002596 267.4713  92.6149 14.98329507 53279,6950.194,96.107,573.864,570.255,0.0
55758.0,STARLINK-5072,PAYLOAD,2024-02-16 12:14:25,14.98336977,0.0002491,70.0013,340.8594,266.3379,93.7496,-5.9938e-05,-8.08e-06,0.0,0 STARLINK-5072,1 55758U 23028T   24047.51001421 -.00000808  00000-0 -59938-4 0  9992,2 55758  70.0013 340.8594 0002491 266.3379  93.7496 14.98336977 53371,6950.171,96.107,573.768,570.305,0.0
55758.0,STARLINK-5072,PAYLOAD,2024-02-16 20:15:05,14.98317627,0.0002671,70.0013,340.0178,262.0069,98.0787,0.00028513,3.31e-05,0.0,0 STARLINK-5072,1 55758U 23028T   24047.84381729  .00003310  00000-0  28513-3 0  9993,2 55758  70.0013 340.0178 0002671 262.0069  98.0787 14.98317627 53428,6950.231,96.108,573.953,570.24,0.0
55758.0,STARLINK-5072,PAYLOAD,2024-02-16 21:51:14,14.98314646,0.000253,70.0013,339.8496,261.5315,98.5557,0.00033861,3.948e-05,0.0,0 STARLINK-5072,1 55758U 23028T   24047.91057883  .00003948  00000-0  33861-3 0  9991,2 55758  70.0013 339.8496 0002530 261.5315  98.5557 14.98314646 53438,6950.24,96.108,573.864,570.347,0.0
55758.0,STARLINK-5072,PAYLOAD,2024-02-17 04:15:45,14.98331685,0.0002546,70.0013,339.1764,257.9482,102.1391,8.4941e-05,9.21e-06,0.0,0 STARLINK-5072,1 55758U 23028T   24048.17761386  .00000921  00000-0  84941-4 0  9994,2 55758  70.0013 339.1764 0002546 257.9482 102.1391 14.98331685 53474,6950.188,96.107,573.822,570.283,0.0
55758.0,STARLINK-5072,PAYLOAD,2024-02-17 12:16:26,14.9834041,0.0002294,70.0026,338.3329,269.3564,90.7332,-0.0001494,-1.875e-05,0.0,0 STARLINK-5072,1 55758U 23028T   24048.51141402 -.00001875  00000-0 -14940-3 0  9995,2 55758  70.0026 338.3329 0002294 269.3564  90.7332 14.98340410 53523,6950.161,96.106,573.62,570.431,0.0
55758.0,STARLINK-5072,PAYLOAD,2024-02-17 21:53:15,14.98309566,0.0002655,70.0023,337.3239,267.0709,93.0146,0.00035736,4.171e-05,0.0,0 STARLINK-5072,1 55758U 23028T   24048.91197950  .00004171  00000-0  35736-3 0  9994,2 55758  70.0023 337.3239 0002655 267.0709  93.0146 14.98309566 53588,6950.256,96.108,573.966,570.276,0.0
55758.0,STARLINK-5072,PAYLOAD,2024-02-18 04:17:46,14.98331136,0.0002417,70.0014,336.6509,262.2517,97.8367,8.8291e-05,9.61e-06,0.0,0 STARLINK-5072,1 55758U 23028T   24049.17901412  .00000961  00000-0  88291-4 0  9997,2 55758  70.0014 336.6509 0002417 262.2517  97.8367 14.98331136 53620,6950.189,96.107,573.734,570.375,0.0
